{
  "type": "FeatureCollection",
  "features": [
    {
      "type": "Feature",
      "properties": {
        "norad_id": 30874,
        "name": "FENGYUN 1C DEB",
        "group": "fengyun-1c-debris",
        "lat": -80.19367552838585,
        "lon": 88.68484093587632,
        "alt_km": 834.0747249592168,
        "timestamp": "2025-12-24T18:55:56.347603+00:00",
        "meta_object_name": "FENGYUN 1C DEB",
        "meta_object_id": "1999-025AXL",
        "meta_epoch": "2025-12-23T21:54:49.279104",
        "meta_mean_motion": 14.19670231,
        "meta_eccentricity": 0.0041453,
        "meta_inclination": 98.4892,
        "meta_ra_of_asc_node": 28.0656,
        "meta_arg_of_pericenter": 8.2369,
        "meta_mean_anomaly": 113.7735,
        "meta_ephemeris_type": 0,
        "meta_classification_type": "U",
        "meta_norad_cat_id": 30874,
        "meta_element_set_no": 999,
        "meta_rev_at_epoch": 97179,
        "meta_bstar": 0.00042456,
        "meta_mean_motion_dot": 8.63e-06,
        "meta_mean_motion_ddot": 0,
        "tle_line1": "1 30874U 99025AXL 25357.91307036  .00000863  00000+0  42456-3 0  9998",
        "tle_line2": "2 30874  98.4892  28.0656 0041453   8.2369 113.7735 14.19670231971790"
      },
      "geometry": {
        "type": "Point",
        "coordinates": [
          88.68484093587632,
          -80.19367552838585
        ]
      }
    },
    {
      "type": "Feature",
      "properties": {
        "norad_id": 30876,
        "name": "FENGYUN 1C DEB",
        "group": "fengyun-1c-debris",
        "lat": 8.432934563111383,
        "lon": 164.726839667782,
        "alt_km": 883.5003735854425,
        "timestamp": "2025-12-24T18:55:56.347615+00:00",
        "meta_object_name": "FENGYUN 1C DEB",
        "meta_object_id": "1999-025AXN",
        "meta_epoch": "2025-12-23T21:39:26.165088",
        "meta_mean_motion": 13.99183597,
        "meta_eccentricity": 0.0066305,
        "meta_inclination": 98.8124,
        "meta_ra_of_asc_node": 342.5563,
        "meta_arg_of_pericenter": 246.2579,
        "meta_mean_anomaly": 143.1196,
        "meta_ephemeris_type": 0,
        "meta_classification_type": "U",
        "meta_norad_cat_id": 30876,
        "meta_element_set_no": 999,
        "meta_rev_at_epoch": 95866,
        "meta_bstar": 0.00048625,
        "meta_mean_motion_dot": 6.76e-06,
        "meta_mean_motion_ddot": 0,
        "tle_line1": "1 30876U 99025AXN 25357.90238617  .00000676  00000+0  48625-3 0  9993",
        "tle_line2": "2 30876  98.8124 342.5563 0066305 246.2579 143.1196 13.99183597958665"
      },
      "geometry": {
        "type": "Point",
        "coordinates": [
          164.726839667782,
          8.432934563111383
        ]
      }
    },
    {
      "type": "Feature",
      "properties": {
        "norad_id": 30878,
        "name": "FENGYUN 1C DEB",
        "group": "fengyun-1c-debris",
        "lat": 59.19033431465004,
        "lon": -165.15373368342267,
        "alt_km": 869.144307651166,
        "timestamp": "2025-12-24T18:55:56.347627+00:00",
        "meta_object_name": "FENGYUN 1C DEB",
        "meta_object_id": "1999-025AXQ",
        "meta_epoch": "2025-12-23T23:55:21.474048",
        "meta_mean_motion": 14.11908902,
        "meta_eccentricity": 0.0039875,
        "meta_inclination": 98.7207,
        "meta_ra_of_asc_node": 359.1615,
        "meta_arg_of_pericenter": 261.9345,
        "meta_mean_anomaly": 154.2284,
        "meta_ephemeris_type": 0,
        "meta_classification_type": "U",
        "meta_norad_cat_id": 30878,
        "meta_element_set_no": 999,
        "meta_rev_at_epoch": 96526,
        "meta_bstar": 0.00052443,
        "meta_mean_motion_dot": 9.22e-06,
        "meta_mean_motion_ddot": 0,
        "tle_line1": "1 30878U 99025AXQ 25357.99677632  .00000922  00000+0  52443-3 0  9995",
        "tle_line2": "2 30878  98.7207 359.1615 0039875 261.9345 154.2284 14.11908902965262"
      },
      "geometry": {
        "type": "Point",
        "coordinates": [
          -165.15373368342267,
          59.19033431465004
        ]
      }
    },
    {
      "type": "Feature",
      "properties": {
        "norad_id": 30879,
        "name": "FENGYUN 1C DEB",
        "group": "fengyun-1c-debris",
        "lat": 1.9245578390048377,
        "lon": -143.16282465483954,
        "alt_km": 736.003855995732,
        "timestamp": "2025-12-24T18:55:56.347639+00:00",
        "meta_object_name": "FENGYUN 1C DEB",
        "meta_object_id": "1999-025AXR",
        "meta_epoch": "2025-12-23T13:28:40.753056",
        "meta_mean_motion": 14.6794774,
        "meta_eccentricity": 0.02000253,
        "meta_inclination": 99.3515,
        "meta_ra_of_asc_node": 215.753,
        "meta_arg_of_pericenter": 246.8904,
        "meta_mean_anomaly": 111.1104,
        "meta_ephemeris_type": 0,
        "meta_classification_type": "U",
        "meta_norad_cat_id": 30879,
        "meta_element_set_no": 999,
        "meta_rev_at_epoch": 62098,
        "meta_bstar": 0.0043903952,
        "meta_mean_motion_dot": 0.0003413,
        "meta_mean_motion_ddot": 0,
        "tle_line1": "1 30879U 99025AXR 25357.56158279  .00034130  00000+0  43904-2 0  9999",
        "tle_line2": "2 30879  99.3515 215.7530 0200025 246.8904 111.1104 14.67947740620989"
      },
      "geometry": {
        "type": "Point",
        "coordinates": [
          -143.16282465483954,
          1.9245578390048377
        ]
      }
    },
    {
      "type": "Feature",
      "properties": {
        "norad_id": 30880,
        "name": "FENGYUN 1C DEB",
        "group": "fengyun-1c-debris",
        "lat": 31.81066266622922,
        "lon": -103.82432134465026,
        "alt_km": 800.1670687648902,
        "timestamp": "2025-12-24T18:55:56.347650+00:00",
        "meta_object_name": "FENGYUN 1C DEB",
        "meta_object_id": "1999-025AXS",
        "meta_epoch": "2025-12-24T03:05:05.277120",
        "meta_mean_motion": 14.25664408,
        "meta_eccentricity": 0.00215487,
        "meta_inclination": 98.7936,
        "meta_ra_of_asc_node": 70.0038,
        "meta_arg_of_pericenter": 75.2241,
        "meta_mean_anomaly": 285.1324,
        "meta_ephemeris_type": 0,
        "meta_classification_type": "U",
        "meta_norad_cat_id": 30880,
        "meta_element_set_no": 999,
        "meta_rev_at_epoch": 96876,
        "meta_bstar": 0.0013115869,
        "meta_mean_motion_dot": 3.073e-05,
        "meta_mean_motion_ddot": 0,
        "tle_line1": "1 30880U 99025AXS 25358.12853330  .00003073  00000+0  13116-2 0  9998",
        "tle_line2": "2 30880  98.7936  70.0038 0021548  75.2241 285.1324 14.25664408968763"
      },
      "geometry": {
        "type": "Point",
        "coordinates": [
          -103.82432134465026,
          31.81066266622922
        ]
      }
    },
    {
      "type": "Feature",
      "properties": {
        "norad_id": 30882,
        "name": "FENGYUN 1C DEB",
        "group": "fengyun-1c-debris",
        "lat": 50.58122974426313,
        "lon": -116.10085144761092,
        "alt_km": 666.4677732997998,
        "timestamp": "2025-12-24T18:55:56.347659+00:00",
        "meta_object_name": "FENGYUN 1C DEB",
        "meta_object_id": "1999-025AXU",
        "meta_epoch": "2025-12-21T09:36:28.677888",
        "meta_mean_motion": 14.86852911,
        "meta_eccentricity": 0.01523754,
        "meta_inclination": 97.9409,
        "meta_ra_of_asc_node": 50.7338,
        "meta_arg_of_pericenter": 12.4613,
        "meta_mean_anomaly": 348.0304,
        "meta_ephemeris_type": 0,
        "meta_classification_type": "U",
        "meta_norad_cat_id": 30882,
        "meta_element_set_no": 999,
        "meta_rev_at_epoch": 99783,
        "meta_bstar": 0.00062068425,
        "meta_mean_motion_dot": 6.79e-05,
        "meta_mean_motion_ddot": 0,
        "tle_line1": "1 30882U 99025AXU 25355.40033192  .00006790  00000+0  62068-3 0  9994",
        "tle_line2": "2 30882  97.9409  50.7338 0152375  12.4613 348.0304 14.86852911997830"
      },
      "geometry": {
        "type": "Point",
        "coordinates": [
          -116.10085144761092,
          50.58122974426313
        ]
      }
    },
    {
      "type": "Feature",
      "properties": {
        "norad_id": 30883,
        "name": "FENGYUN 1C DEB",
        "group": "fengyun-1c-debris",
        "lat": -75.42926081906911,
        "lon": -179.33833942824393,
        "alt_km": 834.5934364007089,
        "timestamp": "2025-12-24T18:55:56.347669+00:00",
        "meta_object_name": "FENGYUN 1C DEB",
        "meta_object_id": "1999-025AXV",
        "meta_epoch": "2025-12-23T20:29:21.267168",
        "meta_mean_motion": 14.14557634,
        "meta_eccentricity": 0.01124428,
        "meta_inclination": 98.3605,
        "meta_ra_of_asc_node": 34.2395,
        "meta_arg_of_pericenter": 181.8091,
        "meta_mean_anomaly": 355.5711,
        "meta_ephemeris_type": 0,
        "meta_classification_type": "U",
        "meta_norad_cat_id": 30883,
        "meta_element_set_no": 999,
        "meta_rev_at_epoch": 97074,
        "meta_bstar": 0.00016040915,
        "meta_mean_motion_dot": 2.87e-06,
        "meta_mean_motion_ddot": 0,
        "tle_line1": "1 30883U 99025AXV 25357.85371837  .00000287  00000+0  16041-3 0  9992",
        "tle_line2": "2 30883  98.3605  34.2395 0112442 181.8091 355.5711 14.14557634970747"
      },
      "geometry": {
        "type": "Point",
        "coordinates": [
          -179.33833942824393,
          -75.42926081906911
        ]
      }
    }
  ]
}